{"type": "FeatureCollection", "features": [{"type": "Feature", "properties": {"norad_id": 22490, "name": "SCD 1", "group": "resource", "lat": 20.237200762560285, "lon": -15.838751589780298, "alt_km": 745.1272607090386, "timestamp": "2025-12-10T14:53:36.778995+00:00", "meta": {"OBJECT_NAME": "SCD 1", "OBJECT_ID": "1993-009B", "EPOCH": "2025-12-10T04:53:32.246016", "MEAN_MOTION": 14.45996078, "ECCENTRICITY": 0.00417365, "INCLINATION": 24.9703, "RA_OF_ASC_NODE": 294.3414, "ARG_OF_PERICENTER": 298.0723, "MEAN_ANOMALY": 102.906, "EPHEMERIS_TYPE": 0, "CLASSIFICATION_TYPE": "U", "NORAD_CAT_ID": 22490, "ELEMENT_SET_NO": 999, "REV_AT_EPOCH": 73373, "BSTAR": 0.00014937956, "MEAN_MOTION_DOT": 7.32e-06, "MEAN_MOTION_DDOT": 0}, "tle": {"line1": "1 22490U 93009B   25344.20384544  .00000732  00000+0  14938-3 0  9995", "line2": "2 22490  24.9703 294.3414 0041736 298.0723 102.9060 14.45996078733737"}}, "geometry": {"type": "Point", "coordinates": [-15.838751589780298, 20.237200762560285]}}, {"type": "Feature", "properties": {"norad_id": 25397, "name": "TECHSAT 1B (GO-32)", "group": "resource", "lat": 69.38064888934628, "lon": 172.66994244430975, "alt_km": 802.8105773037632, "timestamp": "2025-12-10T14:53:36.779027+00:00", "meta": {"OBJECT_NAME": "TECHSAT 1B (GO-32)", "OBJECT_ID": "1998-043D", "EPOCH": "2025-12-09T21:31:36.424704", "MEAN_MOTION": 14.2437571, "ECCENTRICITY": 0.00021335, "INCLINATION": 98.9917, "RA_OF_ASC_NODE": 327.0435, "ARG_OF_PERICENTER": 61.9016, "MEAN_ANOMALY": 298.2377, "EPHEMERIS_TYPE": 0, "CLASSIFICATION_TYPE": "U", "NORAD_CAT_ID": 25397, "ELEMENT_SET_NO": 999, "REV_AT_EPOCH": 42438, "BSTAR": 8.9465612e-05, "MEAN_MOTION_DOT": 1.6e-06, "MEAN_MOTION_DDOT": 0}, "tle": {"line1": "1 25397U 98043D   25343.89694936  .00000160  00000+0  89466-4 0  9994", "line2": "2 25397  98.9917 327.0435 0002133  61.9016 298.2377 14.24375710424380"}}, "geometry": {"type": "Point", "coordinates": [172.66994244430975, 69.38064888934628]}}, {"type": "Feature", "properties": {"norad_id": 25504, "name": "SCD 2", "group": "resource", "lat": 24.972851935121923, "lon": -113.69863318997317, "alt_km": 746.067998785873, "timestamp": "2025-12-10T14:53:36.779040+00:00", "meta": {"OBJECT_NAME": "SCD 2", "OBJECT_ID": "1998-060A", "EPOCH": "2025-12-10T05:20:00.938976", "MEAN_MOTION": 14.45421199, "ECCENTRICITY": 0.00165969, "INCLINATION": 24.9931, "RA_OF_ASC_NODE": 157.4199, "ARG_OF_PERICENTER": 286.7384, "MEAN_ANOMALY": 247.4751, "EPHEMERIS_TYPE": 0, "CLASSIFICATION_TYPE": "U", "NORAD_CAT_ID": 25504, "ELEMENT_SET_NO": 999, "REV_AT_EPOCH": 43295, "BSTAR": 0.00011776964, "MEAN_MOTION_DOT": 6.04e-06, "MEAN_MOTION_DDOT": 0}, "tle": {"line1": "1 25504U 98060A   25344.22223309  .00000604  00000+0  11777-3 0  9995", "line2": "2 25504  24.9931 157.4199 0016596 286.7384 247.4751 14.45421199432950"}}, "geometry": {"type": "Point", "coordinates": [-113.69863318997317, 24.972851935121923]}}, {"type": "Feature", "properties": {"norad_id": 25757, "name": "DLR-TUBSAT", "group": "resource", "lat": 64.89173383648894, "lon": 168.03929301363246, "alt_km": 710.8893512359045, "timestamp": "2025-12-10T14:53:36.779051+00:00", "meta": {"OBJECT_NAME": "DLR-TUBSAT", "OBJECT_ID": "1999-029B", "EPOCH": "2025-12-09T16:52:35.212512", "MEAN_MOTION": 14.52355963, "ECCENTRICITY": 0.00137277, "INCLINATION": 98.656, "RA_OF_ASC_NODE": 328.1233, "ARG_OF_PERICENTER": 202.2533, "MEAN_ANOMALY": 157.8067, "EPHEMERIS_TYPE": 0, "CLASSIFICATION_TYPE": "U", "NORAD_CAT_ID": 25757, "ELEMENT_SET_NO": 999, "REV_AT_EPOCH": 40574, "BSTAR": 8.0485733e-05, "MEAN_MOTION_DOT": 2.8e-06, "MEAN_MOTION_DDOT": 0}, "tle": {"line1": "1 25757U 99029B   25343.70318533  .00000280  00000+0  80486-4 0  9991", "line2": "2 25757  98.6560 328.1233 0013727 202.2533 157.8067 14.52355963405748"}}, "geometry": {"type": "Point", "coordinates": [168.03929301363246, 64.89173383648894]}}, {"type": "Feature", "properties": {"norad_id": 25994, "name": "TERRA", "group": "resource", "lat": 66.61350081300121, "lon": -124.70164617564217, "alt_km": 681.315455190902, "timestamp": "2025-12-10T14:53:36.779061+00:00", "meta": {"OBJECT_NAME": "TERRA", "OBJECT_ID": "1999-068A", "EPOCH": "2025-12-10T08:06:08.279712", "MEAN_MOTION": 14.60897585, "ECCENTRICITY": 0.0003591, "INCLINATION": 97.9752, "RA_OF_ASC_NODE": 36.1102, "ARG_OF_PERICENTER": 99.1752, "MEAN_ANOMALY": 325.5199, "EPHEMERIS_TYPE": 0, "CLASSIFICATION_TYPE": "U", "NORAD_CAT_ID": 25994, "ELEMENT_SET_NO": 999, "REV_AT_EPOCH": 38203, "BSTAR": 0.00016007326, "MEAN_MOTION_DOT": 7.39e-06, "MEAN_MOTION_DDOT": 0}, "tle": {"line1": "1 25994U 99068A   25344.33759583  .00000739  00000+0  16007-3 0  9997", "line2": "2 25994  97.9752  36.1102 0003591  99.1752 325.5199 14.60897585382037"}}, "geometry": {"type": "Point", "coordinates": [-124.70164617564217, 66.61350081300121]}}, {"type": "Feature", "properties": {"norad_id": 27004, "name": "MAROC-TUBSAT", "group": "resource", "lat": 68.81142154530973, "lon": 126.57612342048908, "alt_km": 1005.5329736020185, "timestamp": "2025-12-10T14:53:36.779072+00:00", "meta": {"OBJECT_NAME": "MAROC-TUBSAT", "OBJECT_ID": "2001-056D", "EPOCH": "2025-12-10T08:06:50.106816", "MEAN_MOTION": 13.70252701, "ECCENTRICITY": 0.00190913, "INCLINATION": 99.7912, "RA_OF_ASC_NODE": 152.741, "ARG_OF_PERICENTER": 266.5354, "MEAN_ANOMALY": 211.8143, "EPHEMERIS_TYPE": 0, "CLASSIFICATION_TYPE": "U", "NORAD_CAT_ID": 27004, "ELEMENT_SET_NO": 999, "REV_AT_EPOCH": 20032, "BSTAR": 4.3591823e-05, "MEAN_MOTION_DOT": -8e-08, "MEAN_MOTION_DDOT": 0}, "tle": {"line1": "1 27004U 01056D   25344.33807994 -.00000008  00000+0  43592-4 0  9991", "line2": "2 27004  99.7912 152.7410 0019091 266.5354 211.8143 13.70252701200328"}}, "geometry": {"type": "Point", "coordinates": [126.57612342048908, 68.81142154530973]}}, {"type": "Feature", "properties": {"norad_id": 27424, "name": "AQUA", "group": "resource", "lat": -19.804783610871482, "lon": -51.4833027518843, "alt_km": 693.0043987909994, "timestamp": "2025-12-10T14:53:36.779082+00:00", "meta": {"OBJECT_NAME": "AQUA", "OBJECT_ID": "2002-022A", "EPOCH": "2025-12-10T05:38:30.505056", "MEAN_MOTION": 14.61799707, "ECCENTRICITY": 9.968e-05, "INCLINATION": 98.4035, "RA_OF_ASC_NODE": 305.0734, "ARG_OF_PERICENTER": 114.3542, "MEAN_ANOMALY": 358.3102, "EPHEMERIS_TYPE": 0, "CLASSIFICATION_TYPE": "U", "NORAD_CAT_ID": 27424, "ELEMENT_SET_NO": 999, "REV_AT_EPOCH": 25566, "BSTAR": 0.0003682138, "MEAN_MOTION_DOT": 1.789e-05, "MEAN_MOTION_DDOT": 0}, "tle": {"line1": "1 27424U 02022A   25344.23507529  .00001789  00000+0  36821-3 0  9993", "line2": "2 27424  98.4035 305.0734 0000996 114.3542 358.3102 14.61799707255663"}}, "geometry": {"type": "Point", "coordinates": [-51.4833027518843, -19.804783610871482]}}, {"type": "Feature", "properties": {"norad_id": 28051, "name": "IRS-P6 (RESOURCESAT-1)", "group": "resource", "lat": 39.63462592340282, "lon": 18.250868822797838, "alt_km": 806.6414274903336, "timestamp": "2025-12-10T14:53:36.779092+00:00", "meta": {"OBJECT_NAME": "IRS-P6 (RESOURCESAT-1)", "OBJECT_ID": "2003-046A", "EPOCH": "2025-12-10T06:57:56.132064", "MEAN_MOTION": 14.36072982, "ECCENTRICITY": 0.00639795, "INCLINATION": 98.2176, "RA_OF_ASC_NODE": 24.8104, "ARG_OF_PERICENTER": 188.0382, "MEAN_ANOMALY": 305.8, "EPHEMERIS_TYPE": 0, "CLASSIFICATION_TYPE": "U", "NORAD_CAT_ID": 28051, "ELEMENT_SET_NO": 999, "REV_AT_EPOCH": 15341, "BSTAR": 9.7129322e-05, "MEAN_MOTION_DOT": 2.48e-06, "MEAN_MOTION_DDOT": 0}, "tle": {"line1": "1 28051U 03046A   25344.29023301  .00000248  00000+0  97129-4 0  9992", "line2": "2 28051  98.2176  24.8104 0063979 188.0382 305.8000 14.36072982153416"}}, "geometry": {"type": "Point", "coordinates": [18.250868822797838, 39.63462592340282]}}, {"type": "Feature", "properties": {"norad_id": 28220, "name": "SHIYAN-1 (SY-1)", "group": "resource", "lat": -65.69779019037007, "lon": 63.926579139725106, "alt_km": 485.89502420452754, "timestamp": "2025-12-10T14:53:36.779103+00:00", "meta": {"OBJECT_NAME": "SHIYAN-1 (SY-1)", "OBJECT_ID": "2004-012A", "EPOCH": "2025-12-10T04:11:03.635232", "MEAN_MOTION": 15.28033489, "ECCENTRICITY": 0.00057877, "INCLINATION": 97.8933, "RA_OF_ASC_NODE": 45.561, "ARG_OF_PERICENTER": 335.8258, "MEAN_ANOMALY": 24.2708, "EPHEMERIS_TYPE": 0, "CLASSIFICATION_TYPE": "U", "NORAD_CAT_ID": 28220, "ELEMENT_SET_NO": 999, "REV_AT_EPOCH": 18217, "BSTAR": 0.00067493114, "MEAN_MOTION_DOT": 0.00018409, "MEAN_MOTION_DDOT": 0}, "tle": {"line1": "1 28220U 04012A   25344.17434763  .00018409  00000+0  67493-3 0  9997", "line2": "2 28220  97.8933  45.5610 0005787 335.8258  24.2708 15.28033489182172"}}, "geometry": {"type": "Point", "coordinates": [63.926579139725106, -65.69779019037007]}}, {"type": "Feature", "properties": {"norad_id": 28376, "name": "AURA", "group": "resource", "lat": 60.85632058190971, "lon": 130.04911678450762, "alt_km": 683.4544790870896, "timestamp": "2025-12-10T14:53:36.779112+00:00", "meta": {"OBJECT_NAME": "AURA", "OBJECT_ID": "2004-026A", "EPOCH": "2025-12-10T06:08:12.238944", "MEAN_MOTION": 14.60937544, "ECCENTRICITY": 0.00011959, "INCLINATION": 98.3182, "RA_OF_ASC_NODE": 294.4708, "ARG_OF_PERICENTER": 94.0638, "MEAN_ANOMALY": 266.0699, "EPHEMERIS_TYPE": 0, "CLASSIFICATION_TYPE": "U", "NORAD_CAT_ID": 28376, "ELEMENT_SET_NO": 999, "REV_AT_EPOCH": 13862, "BSTAR": 0.00037293611, "MEAN_MOTION_DOT": 1.779e-05, "MEAN_MOTION_DDOT": 0}, "tle": {"line1": "1 28376U 04026A   25344.25569721  .00001779  00000+0  37294-3 0  9994", "line2": "2 28376  98.3182 294.4708 0001195  94.0638 266.0699 14.60937544138620"}}, "geometry": {"type": "Point", "coordinates": [130.04911678450762, 60.85632058190971]}}]}